{"type": "FeatureCollection", "features": [ {"type": "Feature", "properties": {"norad_id": 33939, "name": "COSMOS 2251 DEB", "group": "cosmos-2251-debris", "lat": 15.574059019532406, "lon": 82.00640820849395, "alt_km": 565.0611558077462, "timestamp": "2025-12-14T07:33:19.872111+00:00", "meta": {"OBJECT_NAME": "COSMOS 2251 DEB", "OBJECT_ID": "1993-036EU", "EPOCH": "2025-12-13T15:28:36.946848", "MEAN_MOTION": 14.9999981, "ECCENTRICITY": 0.00037877, "INCLINATION": 74.0063, "RA_OF_ASC_NODE": 78.7846, "ARG_OF_PERICENTER": 53.6268, "MEAN_ANOMALY": 306.5268, "EPHEMERIS_TYPE": 0, "CLASSIFICATION_TYPE": "U", "NORAD_CAT_ID": 33939, "ELEMENT_SET_NO": 999, "REV_AT_EPOCH": 88766, "BSTAR": 0.0028663798, "MEAN_MOTION_DOT": 0.00035807, "MEAN_MOTION_DDOT": 0}, "tle": {"line1": "1 33939U 93036EU  25347.64487207  .00035807  00000+0  28664-2 0  9997", "line2": "2 33939  74.0063  78.7846 0003787  53.6268 306.5268 14.99999810887668"}}, "geometry": {"type": "Point", "coordinates": [82.00640820849395, 15.574059019532406]}}, {"type": "Feature", "properties": {"norad_id": 33940, "name": "COSMOS 2251 DEB", "group": "cosmos-2251-debris", "lat": -73.6148639274391, "lon": 63.762306579321205, "alt_km": 699.2109042104194, "timestamp": "2025-12-14T07:33:19.872121+00:00", "meta": {"OBJECT_NAME": "COSMOS 2251 DEB", "OBJECT_ID": "1993-036EV", "EPOCH": "2025-12-13T12:29:04.783200", "MEAN_MOTION": 14.58810204, "ECCENTRICITY": 0.00112623, "INCLINATION": 74.0394, "RA_OF_ASC_NODE": 142.0107, "ARG_OF_PERICENTER": 221.7198, "MEAN_ANOMALY": 200.4763, "EPHEMERIS_TYPE": 0, "CLASSIFICATION_TYPE": "U", "NORAD_CAT_ID": 33940, "ELEMENT_SET_NO": 999, "REV_AT_EPOCH": 88605, "BSTAR": 0.0018046283, "MEAN_MOTION_DOT": 8.427e-05, "MEAN_MOTION_DDOT": 0}, "tle": {"line1": "1 33940U 93036EV  25347.52019425  .00008427  00000+0  18046-2 0  9990", "line2": "2 33940  74.0394 142.0107 0011262 221.7198 200.4763 14.58810204886057"}}, "geometry": {"type": "Point", "coordinates": [63.762306579321205, -73.6148639274391]}}, {"type": "Feature", "properties": {"norad_id": 33942, "name": "COSMOS 2251 DEB", "group": "cosmos-2251-debris", "lat": -6.889597656773741, "lon": -90.05357320726105, "alt_km": 754.0729449634318, "timestamp": "2025-12-14T07:33:19.872131+00:00", "meta": {"OBJECT_NAME": "COSMOS 2251 DEB", "OBJECT_ID": "1993-036EX", "EPOCH": "2025-12-13T12:05:55.254336", "MEAN_MOTION": 14.37990841, "ECCENTRICITY": 0.00203519, "INCLINATION": 74.0366, "RA_OF_ASC_NODE": 273.4209, "ARG_OF_PERICENTER": 356.4847, "MEAN_ANOMALY": 121.3461, "EPHEMERIS_TYPE": 0, "CLASSIFICATION_TYPE": "U", "NORAD_CAT_ID": 33942, "ELEMENT_SET_NO": 999, "REV_AT_EPOCH": 88145, "BSTAR": 0.00037403192, "MEAN_MOTION_DOT": 1.108e-05, "MEAN_MOTION_DDOT": 0}, "tle": {"line1": "1 33942U 93036EX  25347.50411174  .00001108  00000+0  37403-3 0  9995", "line2": "2 33942  74.0366 273.4209 0020351 356.4847 121.3461 14.37990841881454"}}, "geometry": {"type": "Point", "coordinates": [-90.05357320726105, -6.889597656773741]}}, {"type": "Feature", "properties": {"norad_id": 33944, "name": "COSMOS 2251 DEB", "group": "cosmos-2251-debris", "lat": -41.7953614479141, "lon": 140.85108771391987, "alt_km": 853.6767252866548, "timestamp": "2025-12-14T07:33:19.872142+00:00", "meta": {"OBJECT_NAME": "COSMOS 2251 DEB", "OBJECT_ID": "1993-036EZ", "EPOCH": "2025-12-13T16:18:18.069984", "MEAN_MOTION": 14.37346012, "ECCENTRICITY": 0.0112214, "INCLINATION": 74.0403, "RA_OF_ASC_NODE": 307.1973, "ARG_OF_PERICENTER": 46.549, "MEAN_ANOMALY": 130.5015, "EPHEMERIS_TYPE": 0, "CLASSIFICATION_TYPE": "U", "NORAD_CAT_ID": 33944, "ELEMENT_SET_NO": 999, "REV_AT_EPOCH": 88041, "BSTAR": 0.00050489322, "MEAN_MOTION_DOT": 1.594e-05, "MEAN_MOTION_DDOT": 0}, "tle": {"line1": "1 33944U 93036EZ  25347.67937581  .00001594  00000+0  50489-3 0  9998", "line2": "2 33944  74.0403 307.1973 0112214  46.5490 130.5015 14.37346012880419"}}, "geometry": {"type": "Point", "coordinates": [140.85108771391987, -41.7953614479141]}}, {"type": "Feature", "properties": {"norad_id": 33945, "name": "COSMOS 2251 DEB", "group": "cosmos-2251-debris", "lat": 0.7935468473828826, "lon": -56.39146377142914, "alt_km": 765.0704950606341, "timestamp": "2025-12-14T07:33:19.872152+00:00", "meta": {"OBJECT_NAME": "COSMOS 2251 DEB", "OBJECT_ID": "1993-036FA", "EPOCH": "2025-12-13T14:48:56.265696", "MEAN_MOTION": 14.34601849, "ECCENTRICITY": 0.00219389, "INCLINATION": 74.0298, "RA_OF_ASC_NODE": 304.6588, "ARG_OF_PERICENTER": 30.7484, "MEAN_ANOMALY": 329.4948, "EPHEMERIS_TYPE": 0, "CLASSIFICATION_TYPE": "U", "NORAD_CAT_ID": 33945, "ELEMENT_SET_NO": 999, "REV_AT_EPOCH": 88028, "BSTAR": 0.00020455319, "MEAN_MOTION_DOT": 5.53e-06, "MEAN_MOTION_DDOT": 0}, "tle": {"line1": "1 33945U 93036FA  25347.61731789  .00000553  00000+0  20455-3 0  9999", "line2": "2 33945  74.0298 304.6588 0021938  30.7484 329.4948 14.34601849880284"}}, "geometry": {"type": "Point", "coordinates": [-56.39146377142914, 0.7935468473828826]}}, {"type": "Feature", "properties": {"norad_id": 33948, "name": "COSMOS 2251 DEB", "group": "cosmos-2251-debris", "lat": -34.272534282907124, "lon": 133.49360948780327, "alt_km": 794.2706449339203, "timestamp": "2025-12-14T07:33:19.872162+00:00", "meta": {"OBJECT_NAME": "COSMOS 2251 DEB", "OBJECT_ID": "1993-036FD", "EPOCH": "2025-12-13T07:08:24.088128", "MEAN_MOTION": 14.35630699, "ECCENTRICITY": 0.00227382, "INCLINATION": 74.0356, "RA_OF_ASC_NODE": 304.1105, "ARG_OF_PERICENTER": 19.7912, "MEAN_ANOMALY": 340.4117, "EPHEMERIS_TYPE": 0, "CLASSIFICATION_TYPE": "U", "NORAD_CAT_ID": 33948, "ELEMENT_SET_NO": 999, "REV_AT_EPOCH": 88031, "BSTAR": 0.00033011318, "MEAN_MOTION_DOT": 9.29e-06, "MEAN_MOTION_DDOT": 0}, "tle": {"line1": "1 33948U 93036FD  25347.29750102  .00000929  00000+0  33011-3 0  9995", "line2": "2 33948  74.0356 304.1105 0022738  19.7912 340.4117 14.35630699880315"}}, "geometry": {"type": "Point", "coordinates": [133.49360948780327, -34.272534282907124]}}, {"type": "Feature", "properties": {"norad_id": 33971, "name": "COSMOS 2251 DEB", "group": "cosmos-2251-debris", "lat": -50.45538628420243, "lon": -129.47848340109792, "alt_km": 756.4322227263783, "timestamp": "2025-12-14T07:33:19.872172+00:00", "meta": {"OBJECT_NAME": "COSMOS 2251 DEB", "OBJECT_ID": "1993-036FE", "EPOCH": "2025-12-13T12:35:35.076192", "MEAN_MOTION": 14.39728211, "ECCENTRICITY": 0.00185627, "INCLINATION": 74.0249, "RA_OF_ASC_NODE": 252.2823, "ARG_OF_PERICENTER": 352.5905, "MEAN_ANOMALY": 180.8302, "EPHEMERIS_TYPE": 0, "CLASSIFICATION_TYPE": "U", "NORAD_CAT_ID": 33971, "ELEMENT_SET_NO": 999, "REV_AT_EPOCH": 88150, "BSTAR": 0.00043902411, "MEAN_MOTION_DOT": 1.351e-05, "MEAN_MOTION_DDOT": 0}, "tle": {"line1": "1 33971U 93036FE  25347.52471153  .00001351  00000+0  43902-3 0  9993", "line2": "2 33971  74.0249 252.2823 0018562 352.5905 180.8302 14.39728211881508"}}, "geometry": {"type": "Point", "coordinates": [-129.47848340109792, -50.45538628420243]}}, {"type": "Feature", "properties": {"norad_id": 33972, "name": "COSMOS 2251 DEB", "group": "cosmos-2251-debris", "lat": -41.95697881025297, "lon": 22.71891854082714, "alt_km": 834.615705461546, "timestamp": "2025-12-14T07:33:19.872183+00:00", "meta": {"OBJECT_NAME": "COSMOS 2251 DEB", "OBJECT_ID": "1993-036FF", "EPOCH": "2025-12-13T13:56:02.112864", "MEAN_MOTION": 14.36232107, "ECCENTRICITY": 0.01233086, "INCLINATION": 73.9943, "RA_OF_ASC_NODE": 189.1156, "ARG_OF_PERICENTER": 356.6838, "MEAN_ANOMALY": 33.5783, "EPHEMERIS_TYPE": 0, "CLASSIFICATION_TYPE": "U", "NORAD_CAT_ID": 33972, "ELEMENT_SET_NO": 999, "REV_AT_EPOCH": 87086, "BSTAR": 0.0014167108, "MEAN_MOTION_DOT": 4.485e-05, "MEAN_MOTION_DDOT": 0}, "tle": {"line1": "1 33972U 93036FF  25347.58058001  .00004485  00000+0  14167-2 0  9994", "line2": "2 33972  73.9943 189.1156 0123308 356.6838  33.5783 14.36232107870865"}}, "geometry": {"type": "Point", "coordinates": [22.71891854082714, -41.95697881025297]}}, {"type": "Feature", "properties": {"norad_id": 33973, "name": "COSMOS 2251 DEB", "group": "cosmos-2251-debris", "lat": 26.916413283765248, "lon": 108.3240670832824, "alt_km": 750.8114338855357, "timestamp": "2025-12-14T07:33:19.872193+00:00", "meta": {"OBJECT_NAME": "COSMOS 2251 DEB", "OBJECT_ID": "1993-036FG", "EPOCH": "2025-12-13T15:21:55.105632", "MEAN_MOTION": 14.45392217, "ECCENTRICITY": 0.00473512, "INCLINATION": 74.0085, "RA_OF_ASC_NODE": 101.2116, "ARG_OF_PERICENTER": 279.4581, "MEAN_ANOMALY": 199.4629, "EPHEMERIS_TYPE": 0, "CLASSIFICATION_TYPE": "U", "NORAD_CAT_ID": 33973, "ELEMENT_SET_NO": 999, "REV_AT_EPOCH": 88613, "BSTAR": 0.00022351444, "MEAN_MOTION_DOT": 7.69e-06, "MEAN_MOTION_DDOT": 0}, "tle": {"line1": "1 33973U 93036FG  25347.64022113  .00000769  00000+0  22351-3 0  9993", "line2": "2 33973  74.0085 101.2116 0047351 279.4581 199.4629 14.45392217886133"}}, "geometry": {"type": "Point", "coordinates": [108.3240670832824, 26.916413283765248]}}, {"type": "Feature", "properties": {"norad_id": 33975, "name": "COSMOS 2251 DEB", "group": "cosmos-2251-debris", "lat": 66.91048306107093, "lon": 124.66996903263706, "alt_km": 992.0437079094063, "timestamp": "2025-12-14T07:33:19.872204+00:00", "meta": {"OBJECT_NAME": "COSMOS 2251 DEB", "OBJECT_ID": "1993-036FJ", "EPOCH": "2025-12-13T15:45:55.089504", "MEAN_MOTION": 14.00527395, "ECCENTRICITY": 0.01912899, "INCLINATION": 73.8021, "RA_OF_ASC_NODE": 82.8408, "ARG_OF_PERICENTER": 215.5909, "MEAN_ANOMALY": 143.2345, "EPHEMERIS_TYPE": 0, "CLASSIFICATION_TYPE": "U", "NORAD_CAT_ID": 33975, "ELEMENT_SET_NO": 999, "REV_AT_EPOCH": 85842, "BSTAR": 0.00088790057, "MEAN_MOTION_DOT": 1.519e-05, "MEAN_MOTION_DDOT": 0}, "tle": {"line1": "1 33975U 93036FJ  25347.65688761  .00001519  00000+0  88790-3 0  9996", "line2": "2 33975  73.8021  82.8408 0191289 215.5909 143.2345 14.00527395858426"}}, "geometry": {"type": "Point", "coordinates": [124.66996903263706, 66.91048306107093]}}]}